{"type": "FeatureCollection", "features": [ {"type": "Feature", "properties": {"norad_id": 64902, "name": "CO3D 2", "group": "resource", "lat": 33.19742738329153, "lon": -104.99090494714451, "alt_km": 503.2462521797697, "timestamp": "2025-12-19T22:41:52.037180+00:00", "meta": {"OBJECT_NAME": "CO3D 2", "OBJECT_ID": "2025-156D", "EPOCH": "2025-12-18T23:56:22.431840", "MEAN_MOTION": 15.20201426, "ECCENTRICITY": 6.127e-05, "INCLINATION": 97.4339, "RA_OF_ASC_NODE": 69.1735, "ARG_OF_PERICENTER": 62.3895, "MEAN_ANOMALY": 297.7402, "EPHEMERIS_TYPE": 0, "CLASSIFICATION_TYPE": "U", "NORAD_CAT_ID": 64902, "ELEMENT_SET_NO": 999, "REV_AT_EPOCH": 2215, "BSTAR": 2.1688322e-05, "MEAN_MOTION_DOT": 4.02e-06, "MEAN_MOTION_DDOT": 0}, "tle": {"line1": "1 64902U 25156D   25352.99748185  .00000402  00000+0  21688-4 0  9992", "line2": "2 64902  97.4339  69.1735 0000612  62.3895 297.7402 15.20201426 22155"}}, "geometry": {"type": "Point", "coordinates": [-104.99090494714451, 33.19742738329153]}}, {"type": "Feature", "properties": {"norad_id": 64903, "name": "CO3D 1", "group": "resource", "lat": 34.005673574630045, "lon": -104.83723872746121, "alt_km": 503.02056394647934, "timestamp": "2025-12-19T22:41:52.037190+00:00", "meta": {"OBJECT_NAME": "CO3D 1", "OBJECT_ID": "2025-156E", "EPOCH": "2025-12-19T17:19:13.310976", "MEAN_MOTION": 15.20191263, "ECCENTRICITY": 9.8e-05, "INCLINATION": 97.4345, "RA_OF_ASC_NODE": 69.8878, "ARG_OF_PERICENTER": 68.6298, "MEAN_ANOMALY": 291.5042, "EPHEMERIS_TYPE": 0, "CLASSIFICATION_TYPE": "U", "NORAD_CAT_ID": 64903, "ELEMENT_SET_NO": 999, "REV_AT_EPOCH": 2226, "BSTAR": 0.00020268, "MEAN_MOTION_DOT": 4.321e-05, "MEAN_MOTION_DDOT": 0}, "tle": {"line1": "1 64903U 25156E   25353.72168184  .00004321  00000+0  20268-3 0  9996", "line2": "2 64903  97.4345  69.8878 0000980  68.6298 291.5042 15.20191263 22263"}}, "geometry": {"type": "Point", "coordinates": [-104.83723872746121, 34.005673574630045]}}, {"type": "Feature", "properties": {"norad_id": 66514, "name": "SENTINEL-6B", "group": "resource", "lat": -31.761466994004884, "lon": -16.562638568168364, "alt_km": 1336.81705325862, "timestamp": "2025-12-19T22:41:52.037201+00:00", "meta": {"OBJECT_NAME": "SENTINEL-6B", "OBJECT_ID": "2025-264A", "EPOCH": "2025-12-12T06:01:21.428544", "MEAN_MOTION": 12.81479578, "ECCENTRICITY": 0.00078482, "INCLINATION": 66.0385, "RA_OF_ASC_NODE": 163.4531, "ARG_OF_PERICENTER": 270.1376, "MEAN_ANOMALY": 89.874, "EPHEMERIS_TYPE": 0, "CLASSIFICATION_TYPE": "U", "NORAD_CAT_ID": 66514, "ELEMENT_SET_NO": 999, "REV_AT_EPOCH": 322, "BSTAR": 0.00018573353, "MEAN_MOTION_DOT": -1.8e-07, "MEAN_MOTION_DDOT": 0}, "tle": {"line1": "1 66514U 25264A   25346.25094246 -.00000018  00000+0  18573-3 0  9999", "line2": "2 66514  66.0385 163.4531 0007848 270.1376  89.8740 12.81479578  3223"}}, "geometry": {"type": "Point", "coordinates": [-16.562638568168364, -31.761466994004884]}}]}